{
    "type" : "FeatureCollection",
             "name" : "line3",
                      "crs"
        : {
            "type" : "name",
            "properties" : {"name" : "urn:ogc:def:crs:OGC:1.3:CRS84"}
        },
          "features" : [ {
              "type" : "Feature",
              "properties" : {"name" : null},
              "geometry" : {
                  "type" : "LineString",
                  "coordinates" : [ [ -1.0, 0.5 ], [ 1.0, 2.5 ], [ 3.0, 0.5 ] ]
              }
          } ]
}
