{
    "type" : "FeatureCollection",
             "name" : "line2",
                      "crs"
        : {
            "type" : "name",
            "properties" : {"name" : "urn:ogc:def:crs:OGC:1.3:CRS84"}
        },
          "features" : [ {
              "type" : "Feature",
              "properties" : {"name" : null},
              "geometry" : {
                  "type" : "LineString",
                  "coordinates" :
                      [ [ 0.0, 1.0 ], [ 1.0, 1.0 ], [ 2.0, 1.0 ], [ 3.0, 1.0 ] ]
              }
          } ]
}
